{
  "63025": {
    "noradId": "63025",
    "tle": [
      "1 63025C 25032W   25333.80187500 -.00001479  00000+0 -53593-4 0  3336",
      "2 63025  43.0016 179.8586 0001426 269.4149 209.9341 15.27569226    18"
    ]
  },
  "63029": {
    "noradId": "63029",
    "tle": [
      "1 63029C 25034A   25333.80256944 -.00001068  00000+0 -35979-4 0  3333",
      "2 63029  53.1603  14.7226 0001435  90.3912 349.2530 15.30193590    12"
    ]
  },
  "63030": {
    "noradId": "63030",
    "tle": [
      "1 63030C 25034B   25333.80256944 -.00010367  00000+0 -34938-3 0  3330",
      "2 63030  53.1606  15.3400 0001365  84.5820  40.9603 15.30203822    19"
    ]
  },
  "63031": {
    "noradId": "63031",
    "tle": [
      "1 63031C 25034C   25333.79840278 -.00024034  00000+0 -80957-3 0  3336",
      "2 63031  53.1579   1.9300 0001475 101.1258 330.1765 15.30233058    19"
    ]
  },
  "63032": {
    "noradId": "63032",
    "tle": [
      "1 63032C 25034D   25333.80187500 -.00007219  00000+0 -24333-3 0  3333",
      "2 63032  53.1580   2.4392 0001204  87.6147  95.3254 15.30197643    16"
    ]
  },
  "63033": {
    "noradId": "63033",
    "tle": [
      "1 63033C 25034E   25333.80118056 -.00002877  00000+0 -96950-4 0  3334",
      "2 63033  53.1591   2.0806 0001306  91.1361 274.0991 15.30195256    18"
    ]
  },
  "63034": {
    "noradId": "63034",
    "tle": [
      "1 63034C 25034F   25333.79979167  .00002181  00000+0  73484-4 0  3334",
      "2 63034  53.1598   2.1290 0001387  88.2109 246.1079 15.30192848    11"
    ]
  },
  "63035": {
    "noradId": "63035",
    "tle": [
      "1 63035C 25034G   25333.80118056 -.00003861  00000+0 -13011-3 0  3336",
      "2 63035  53.1596   2.2964 0001353  85.0507 169.6731 15.30197378    16"
    ]
  },
  "63036": {
    "noradId": "63036",
    "tle": [
      "1 63036C 25034H   25333.80395833  .00001145  00000+0  38588-4 0  3335",
      "2 63036  53.1594   2.1598 0001365  91.7605 242.2551 15.30192575    15"
    ]
  },
  "63037": {
    "noradId": "63037",
    "tle": [
      "1 63037C 25034J   25333.80326389 -.00023891  00000+0 -80449-3 0  3332",
      "2 63037  53.1600   2.2519 0001257  86.5982 196.9587 15.30244169    19"
    ]
  },
  "63038": {
    "noradId": "63038",
    "tle": [
      "1 63038C 25034K   25333.79979167  .00018159  00000+0  61208-3 0  3330",
      "2 63038  53.1600   2.2170 0001580  80.3352 207.4760 15.30169709    12"
    ]
  },
  "63039": {
    "noradId": "63039",
    "tle": [
      "1 63039C 25034L   25333.79979167  .00004772  00000+0  16081-3 0  3336",
      "2 63039  53.1599   2.2437 0001322  88.6123 187.5410 15.30188559    11"
    ]
  },
  "63040": {
    "noradId": "63040",
    "tle": [
      "1 63040C 25034M   25333.80256944  .00000516  00000+0  17401-4 0  3331",
      "2 63040  53.1594   2.0812 0001329  88.8716 278.2087 15.30192416    15"
    ]
  },
  "63041": {
    "noradId": "63041",
    "tle": [
      "1 63041C 25034N   25333.79909722 -.00004138  00000+0 -13948-3 0  3336",
      "2 63041  53.1601   2.1629 0001528  87.8665 225.1767 15.30195693    11"
    ]
  },
  "63042": {
    "noradId": "63042",
    "tle": [
      "1 63042C 25034P   25333.80187500 -.00008901  00000+0 -29999-3 0  3336",
      "2 63042  53.1578   1.8885 0001244  88.7877  13.3432 15.30202900    11"
    ]
  },
  "63043": {
    "noradId": "63043",
    "tle": [
      "1 63043C 25034Q   25333.80326389 -.00004245  00000+0 -14307-3 0  3331",
      "2 63043  53.1603  15.3114 0001263  91.2493  49.7654 15.30195363    13"
    ]
  },
  "63044": {
    "noradId": "63044",
    "tle": [
      "1 63044C 25034R   25333.80118056 -.00004866  00000+0 -16400-3 0  3337",
      "2 63044  53.1605  14.6568 0001284  90.9493  15.9407 15.30196150    16"
    ]
  },
  "63045": {
    "noradId": "63045",
    "tle": [
      "1 63045C 25034S   25333.80465278 -.00045255  00000+0 -15254-2 0  3331",
      "2 63045  53.1584  14.9106 0001332  88.8870 257.5509 15.30234775    16"
    ]
  },
  "63046": {
    "noradId": "63046",
    "tle": [
      "1 63046C 25034T   25333.80326389 -.00013259  00000+0 -44687-3 0  3333",
      "2 63046  53.1576   1.8259 0001188  85.7010  53.1671 15.30205199    11"
    ]
  },
  "63047": {
    "noradId": "63047",
    "tle": [
      "1 63047C 25034U   25333.80048611 -.00001986  00000+0 -66933-4 0  3336",
      "2 63047  53.1595   2.1838 0001324  87.0961 221.9637 15.30194950    11"
    ]
  },
  "63048": {
    "noradId": "63048",
    "tle": [
      "1 63048C 25034V   25333.80395833 -.00003295  00000+0 -11104-3 0  3332",
      "2 63048  53.1584   2.3709 0001357  90.2420 133.2603 15.30195074    17"
    ]
  },
  "63049": {
    "noradId": "63049",
    "tle": [
      "1 63049C 25034W   25333.80465278  .00030988  00000+0  10448-2 0  3330",
      "2 63049  53.1599  15.2686 0001463  88.8948  77.2743 15.30146823    17"
    ]
  },
  "63050": {
    "noradId": "63050",
    "tle": [
      "1 63050C 25034X   25333.79840278 -.00013417  00000+0 -45217-3 0  3330",
      "2 63050  53.1591  15.0673 0001143  83.6353 164.3622 15.30206484    17"
    ]
  },
  "63051": {
    "noradId": "63051",
    "tle": [
      "1 63051C 25034Y   25333.79840278 -.00003720  00000+0 -12536-3 0  3335",
      "2 63051  53.1596  15.1543 0001249  89.7305 117.5429 15.30202692    13"
    ]
  },
  "63052": {
    "noradId": "63052",
    "tle": [
      "1 63052C 25035A   25333.82826389 -.00017160  00000+0 -13332-3 0  3336",
      "2 63052  43.0007 257.0668 0001553 271.8832 231.2618 15.70848383    12"
    ]
  },
  "63053": {
    "noradId": "63053",
    "tle": [
      "1 63053C 25035B   25333.83034722 -.00009459  00000+0 -73493-4 0  3337",
      "2 63053  43.0006 257.1285 0001634 275.9327 208.9544 15.70838966    17"
    ]
  },
  "63054": {
    "noradId": "63054",
    "tle": [
      "1 63054C 25035C   25333.82618056 -.00008007  00000+0 -62207-4 0  3334",
      "2 63054  43.0004 257.6006 0001575 265.4413  15.4866 15.70839335    15"
    ]
  },
  "63055": {
    "noradId": "63055",
    "tle": [
      "1 63055C 25035D   25333.82687500 -.00008019  00000+0 -62301-4 0  3333",
      "2 63055  43.0004 256.8495 0001662 259.9160 325.5511 15.70839649    13"
    ]
  },
  "63056": {
    "noradId": "63056",
    "tle": [
      "1 63056C 25035E   25333.82756944 -.00011163  00000+0 -86731-4 0  3330",
      "2 63056  43.0006 257.4417 0001490 268.5649  80.3494 15.70842717    10"
    ]
  },
  "63057": {
    "noradId": "63057",
    "tle": [
      "1 63057C 25035F   25333.83034722 -.00013217  00000+0 -10269-3 0  3339",
      "2 63057  43.0006 257.1994 0001804 268.1794 186.6479 15.70842846    10"
    ]
  },
  "63058": {
    "noradId": "63058",
    "tle": [
      "1 63058C 25035G   25333.83034722 -.00016469  00000+0 -12795-3 0  3338",
      "2 63058  43.0004 257.6487 0001589 265.4470   9.0077 15.70848810    11"
    ]
  },
  "63059": {
    "noradId": "63059",
    "tle": [
      "1 63059C 25035H   25333.83034722 -.00006826  00000+0 -53032-4 0  3335",
      "2 63059  43.0005 257.4977 0001515 265.9571  68.6280 15.70838500    13"
    ]
  },
  "63060": {
    "noradId": "63060",
    "tle": [
      "1 63060C 25035J   25333.82756944 -.00011528  00000+0 -89576-4 0  3330",
      "2 63060  43.0006 257.3642 0001536 272.2647 106.7146 15.70839917    10"
    ]
  },
  "63061": {
    "noradId": "63061",
    "tle": [
      "1 63061C 25035K   25333.82826389 -.00012944  00000+0 -10055-3 0  3330",
      "2 63061  43.0004 257.4465 0001715 264.5663  83.1197 15.70846538    15"
    ]
  },
  "63062": {
    "noradId": "63062",
    "tle": [
      "1 63062C 25035L   25333.83104167 -.00010225  00000+0 -79442-4 0  3331",
      "2 63062  43.0007 257.2668 0001544 267.6486 161.0509 15.70841038    12"
    ]
  },
  "63063": {
    "noradId": "63063",
    "tle": [
      "1 63063C 25035M   25333.82895833 -.00007203  00000+0 -55959-4 0  3337",
      "2 63063  43.0007 256.9795 0001753 254.8114 282.3339 15.70839704    13"
    ]
  },
  "63064": {
    "noradId": "63064",
    "tle": [
      "1 63064C 25035N   25333.82479167 -.00014917  00000+0 -11589-3 0  3336",
      "2 63064  43.0006 256.9291 0001628 254.0682 289.5482 15.70846241    19"
    ]
  },
  "63065": {
    "noradId": "63065",
    "tle": [
      "1 63065C 25035P   25333.79840278  .00007395  00000+0  26784-3 0  3331",
      "2 63065  43.0002 351.1875 0001554 266.8221  70.3003 15.27572389    16"
    ]
  },
  "63066": {
    "noradId": "63066",
    "tle": [
      "1 63066C 25035Q   25333.79979167  .00001437  00000+0  52024-4 0  3330",
      "2 63066  43.0031 350.9372 0001271 270.1090 173.7070 15.27582133    16"
    ]
  },
  "63067": {
    "noradId": "63067",
    "tle": [
      "1 63067C 25035R   25333.80256944 -.00001643  00000+0 -59503-4 0  3334",
      "2 63067  43.0021 351.3990 0001359 266.8688 354.1375 15.27581850    17"
    ]
  },
  "63068": {
    "noradId": "63068",
    "tle": [
      "1 63068C 25035S   25333.79979167  .00012861  00000+0  46593-3 0  3338",
      "2 63068  43.0011 351.3131 0001705 264.6540  23.5039 15.27556826    11"
    ]
  },
  "63069": {
    "noradId": "63069",
    "tle": [
      "1 63069C 25035T   25333.79979167  .00003790  00000+0  13727-3 0  3333",
      "2 63069  43.0007 351.2634 0001398 269.2471  40.1489 15.27571952    17"
    ]
  },
  "63070": {
    "noradId": "63070",
    "tle": [
      "1 63070C 25035U   25333.79770833 -.00006978  00000+0 -25260-3 0  3332",
      "2 63070  43.0034 351.6161 0001077 279.3735 236.9813 15.27605556    11"
    ]
  },
  "63071": {
    "noradId": "63071",
    "tle": [
      "1 63071C 25035V   25333.79840278  .00005706  00000+0  20668-3 0  3337",
      "2 63071  43.0031 347.9578 0001386 266.0182 329.3979 15.27571800    15"
    ]
  },
  "63072": {
    "noradId": "63072",
    "tle": [
      "1 63072C 25035W   25333.80187500  .00005951  00000+0  21564-3 0  3330",
      "2 63072  43.0030 351.5024 0001209 266.7466 308.0494 15.27559290    13"
    ]
  }
}